FLOCK 4BE-18            
1 60480U 24149N   26068.80758351  .00022043  00000+0  58512-3 0  9991
2 60480  97.3768 151.7375 0003279 239.0251 121.0672 15.38300775 87016
KUIPER-00262            
1 67788U 26030AA  26068.68113949  .00027576  00000+0  76511-3 0  9999
2 67788  51.8818 219.0179 0000354  64.0282 296.0741 15.36709745  5092
