[{"OBJECT_NAME":"FLOCK 4BE-18","OBJECT_ID":"2024-149N","EPOCH":"2026-03-09T19:22:55.216128","MEAN_MOTION":15.38300775,"ECCENTRICITY":0.00032793,"INCLINATION":97.3768,"RA_OF_ASC_NODE":151.7375,"ARG_OF_PERICENTER":239.0251,"MEAN_ANOMALY":121.0672,"EPHEMERIS_TYPE":0,"CLASSIFICATION_TYPE":"U","NORAD_CAT_ID":60480,"ELEMENT_SET_NO":999,"REV_AT_EPOCH":8701,"BSTAR":0.0005851242,"MEAN_MOTION_DOT":0.00022043,"MEAN_MOTION_DDOT":0},{"OBJECT_NAME":"KUIPER-00262","OBJECT_ID":"2026-030AA","EPOCH":"2026-03-09T16:20:50.451936","MEAN_MOTION":15.36709745,"ECCENTRICITY":3.535e-5,"INCLINATION":51.8818,"RA_OF_ASC_NODE":219.0179,"ARG_OF_PERICENTER":64.0282,"MEAN_ANOMALY":296.0741,"EPHEMERIS_TYPE":0,"CLASSIFICATION_TYPE":"U","NORAD_CAT_ID":67788,"ELEMENT_SET_NO":999,"REV_AT_EPOCH":509,"BSTAR":0.00076510794,"MEAN_MOTION_DOT":0.00027576,"MEAN_MOTION_DDOT":0}]
